start=new Date('2023-06-18T00:00:00.000Z').valueOf();
sats=[{"MEAN_ANOMALY":"256.2998","CLASSIFICATION_TYPE":"U","REV_AT_EPOCH":"11697","EPOCH":"2023-06-17T16:22:17.792832","CENTER_NAME":"EARTH","INCLINATION":"53.0553","FILE":"3935891","APOAPSIS":"548.204","ECCENTRICITY":"0.00013830","MEAN_ELEMENT_THEORY":"SGP4","MEAN_MOTION":"15.06389327","SITE":"AFETR","BSTAR":"-0.00003449400000","NORAD_CAT_ID":"48363","OBJECT_TYPE":"PAYLOAD","TLE_LINE2":"2 48363  53.0553 147.8654 0001383 103.8145 256.2998 15.06389327116978","MEAN_MOTION_DOT":"-0.00000795","ARG_OF_PERICENTER":"103.8145","PERIOD":"95.593","GP_ID":"234170811","COUNTRY_CODE":"US","LAUNCH_DATE":"2021-05-04","EPHEMERIS_TYPE":"0","MEAN_MOTION_DDOT":"0.0000000000000","TLE_LINE1":"1 48363U 21038L   23168.68215038 -.00000795  00000-0 -34494-4 0  9992","OBJECT_NAME":"STARLINK-2626","TIME_SYSTEM":"UTC","PERIAPSIS":"546.288","REF_FRAME":"TEME","SEMIMAJOR_AXIS":"6925.381","RA_OF_ASC_NODE":"147.8654","OBJECT_ID":"2021-038L","ELEMENT_SET_NO":"999","DECAY_DATE":null,"RCS_SIZE":"LARGE"},{"TIME_SYSTEM":"UTC","OBJECT_NAME":"STARLINK-2611","TLE_LINE1":"1 48364U 21038M   23168.23247581  .00001747  00000-0  13612-3 0  9996","EPHEMERIS_TYPE":"0","MEAN_MOTION_DDOT":"0.0000000000000","LAUNCH_DATE":"2021-05-04","COUNTRY_CODE":"US","GP_ID":"234135477","DECAY_DATE":null,"RCS_SIZE":"LARGE","ELEMENT_SET_NO":"999","SEMIMAJOR_AXIS":"6925.329","OBJECT_ID":"2021-038M","RA_OF_ASC_NODE":"150.0890","REF_FRAME":"TEME","PERIAPSIS":"546.321","SITE":"AFETR","MEAN_MOTION":"15.06406531","MEAN_ELEMENT_THEORY":"SGP4","ECCENTRICITY":"0.00012600","APOAPSIS":"548.066","CENTER_NAME":"EARTH","EPOCH":"2023-06-17T05:34:45.909984","FILE":"3935591","INCLINATION":"53.0537","REV_AT_EPOCH":"11690","CLASSIFICATION_TYPE":"U","MEAN_ANOMALY":"273.2265","PERIOD":"95.592","ARG_OF_PERICENTER":"86.8868","TLE_LINE2":"2 48364  53.0537 150.0890 0001260  86.8868 273.2265 15.06406531116901","MEAN_MOTION_DOT":"0.00001747","OBJECT_TYPE":"PAYLOAD","BSTAR":"0.00013612000000","NORAD_CAT_ID":"48364"},{"PERIAPSIS":"546.456","REF_FRAME":"TEME","RA_OF_ASC_NODE":"147.9898","OBJECT_ID":"2021-038N","SEMIMAJOR_AXIS":"6925.361","RCS_SIZE":"LARGE","DECAY_DATE":null,"ELEMENT_SET_NO":"999","COUNTRY_CODE":"US","GP_ID":"234169809","MEAN_MOTION_DDOT":"0.0000000000000","EPHEMERIS_TYPE":"0","LAUNCH_DATE":"2021-05-04","TLE_LINE1":"1 48365U 21038N   23168.65633860  .00000464  00000-0  50070-4 0  9997","TIME_SYSTEM":"UTC","OBJECT_NAME":"STARLINK-2608","OBJECT_TYPE":"PAYLOAD","NORAD_CAT_ID":"48365","BSTAR":"0.00005007000000","ARG_OF_PERICENTER":"88.4131","MEAN_MOTION_DOT":"0.00000464","TLE_LINE2":"2 48365  53.0544 147.9898 0001112  88.4131 271.6985 15.06395813116978","PERIOD":"95.592","REV_AT_EPOCH":"11697","MEAN_ANOMALY":"271.6985","CLASSIFICATION_TYPE":"U","APOAPSIS":"547.996","FILE":"3935891","INCLINATION":"53.0544","CENTER_NAME":"EARTH","EPOCH":"2023-06-17T15:45:07.655040","ECCENTRICITY":"0.00011120","SITE":"AFETR","MEAN_MOTION":"15.06395813","MEAN_ELEMENT_THEORY":"SGP4"},{"COUNTRY_CODE":"US","GP_ID":"234170561","EPHEMERIS_TYPE":"0","MEAN_MOTION_DDOT":"0.0000000000000","LAUNCH_DATE":"2021-05-04","TLE_LINE1":"1 48366U 21038P   23168.64390377  .00001588  00000-0  12549-3 0  9996","TIME_SYSTEM":"UTC","OBJECT_NAME":"STARLINK-2631","PERIAPSIS":"546.399","REF_FRAME":"TEME","SEMIMAJOR_AXIS":"6925.355","OBJECT_ID":"2021-038P","RA_OF_ASC_NODE":"143.0421","DECAY_DATE":null,"RCS_SIZE":"LARGE","ELEMENT_SET_NO":"999","REV_AT_EPOCH":"11703","MEAN_ANOMALY":"269.1604","CLASSIFICATION_TYPE":"U","APOAPSIS":"548.041","EPOCH":"2023-06-17T15:27:13.285728","CENTER_NAME":"EARTH","FILE":"3935891","INCLINATION":"53.0545","ECCENTRICITY":"0.00011850","MEAN_MOTION":"15.06397852","SITE":"AFETR","MEAN_ELEMENT_THEORY":"SGP4","OBJECT_TYPE":"PAYLOAD","BSTAR":"0.00012549000000","NORAD_CAT_ID":"48366","ARG_OF_PERICENTER":"90.9520","MEAN_MOTION_DOT":"0.00001588","TLE_LINE2":"2 48366  53.0545 143.0421 0001185  90.9520 269.1604 15.06397852117032","PERIOD":"95.592"},{"FILE":"3935891","INCLINATION":"53.0538","CENTER_NAME":"EARTH","EPOCH":"2023-06-17T15:21:55.800288","APOAPSIS":"548.223","CLASSIFICATION_TYPE":"U","MEAN_ANOMALY":"268.2625","REV_AT_EPOCH":"11703","MEAN_ELEMENT_THEORY":"SGP4","MEAN_MOTION":"15.06387554","SITE":"AFETR","ECCENTRICITY":"0.00014030","TLE_LINE2":"2 48367  53.0538 143.0563 0001403  91.8525 268.2625 15.06387554117031","MEAN_MOTION_DOT":"0.00000428","ARG_OF_PERICENTER":"91.8525","NORAD_CAT_ID":"48367","BSTAR":"0.00004766600000","OBJECT_TYPE":"PAYLOAD","PERIOD":"95.593","LAUNCH_DATE":"2021-05-04","MEAN_MOTION_DDOT":"0.0000000000000","EPHEMERIS_TYPE":"0","GP_ID":"234171311","COUNTRY_CODE":"US","OBJECT_NAME":"STARLINK-2643","TIME_SYSTEM":"UTC","TLE_LINE1":"1 48367U 21038Q   23168.64022917  .00000428  00000-0  47666-4 0  9990","REF_FRAME":"TEME","PERIAPSIS":"546.280","ELEMENT_SET_NO":"999","RCS_SIZE":"LARGE","DECAY_DATE":null,"OBJECT_ID":"2021-038Q","RA_OF_ASC_NODE":"143.0563","SEMIMAJOR_AXIS":"6925.387"},{"COUNTRY_CODE":"US","GP_ID":"234170059","MEAN_MOTION_DDOT":"0.0000000000000","EPHEMERIS_TYPE":"0","LAUNCH_DATE":"2021-05-04","TLE_LINE1":"1 48368U 21038R   23168.22005585  .00000341  00000-0  41812-4 0  9998","TIME_SYSTEM":"UTC","OBJECT_NAME":"STARLINK-2623","PERIAPSIS":"546.329","REF_FRAME":"TEME","OBJECT_ID":"2021-038R","RA_OF_ASC_NODE":"145.2214","SEMIMAJOR_AXIS":"6925.359","RCS_SIZE":"LARGE","DECAY_DATE":null,"ELEMENT_SET_NO":"999","REV_AT_EPOCH":"11697","CLASSIFICATION_TYPE":"U","MEAN_ANOMALY":"270.5086","APOAPSIS":"548.119","FILE":"3935891","INCLINATION":"53.0540","EPOCH":"2023-06-17T05:16:52.825440","CENTER_NAME":"EARTH","ECCENTRICITY":"0.00012920","MEAN_MOTION":"15.06396554","SITE":"AFETR","MEAN_ELEMENT_THEORY":"SGP4","OBJECT_TYPE":"PAYLOAD","NORAD_CAT_ID":"48368","BSTAR":"0.00004181200000","ARG_OF_PERICENTER":"89.6051","TLE_LINE2":"2 48368  53.0540 145.2214 0001292  89.6051 270.5086 15.06396554116976","MEAN_MOTION_DOT":"0.00000341","PERIOD":"95.592"},{"MEAN_MOTION":"15.06386674","SITE":"AFETR","MEAN_ELEMENT_THEORY":"SGP4","ECCENTRICITY":"0.00011580","APOAPSIS":"548.056","INCLINATION":"53.0543","FILE":"3935891","EPOCH":"2023-06-17T15:16:37.200288","CENTER_NAME":"EARTH","REV_AT_EPOCH":"11703","MEAN_ANOMALY":"269.7727","CLASSIFICATION_TYPE":"U","PERIOD":"95.593","ARG_OF_PERICENTER":"90.3395","MEAN_MOTION_DOT":"-0.00000363","TLE_LINE2":"2 48369  53.0543 143.0757 0001158  90.3395 269.7727 15.06386674117031","OBJECT_TYPE":"PAYLOAD","NORAD_CAT_ID":"48369","BSTAR":"-0.00000548070000","TIME_SYSTEM":"UTC","OBJECT_NAME":"STARLINK-2641","TLE_LINE1":"1 48369U 21038S   23168.63654167 -.00000363  00000-0 -54807-5 0  9995","MEAN_MOTION_DDOT":"0.0000000000000","EPHEMERIS_TYPE":"0","LAUNCH_DATE":"2021-05-04","COUNTRY_CODE":"US","GP_ID":"234170309","RCS_SIZE":"LARGE","DECAY_DATE":null,"ELEMENT_SET_NO":"999","OBJECT_ID":"2021-038S","RA_OF_ASC_NODE":"143.0757","SEMIMAJOR_AXIS":"6925.389","REF_FRAME":"TEME","PERIAPSIS":"546.452"},{"SEMIMAJOR_AXIS":"6925.367","OBJECT_ID":"2021-038T","RA_OF_ASC_NODE":"143.0919","ELEMENT_SET_NO":"999","DECAY_DATE":null,"RCS_SIZE":"LARGE","PERIAPSIS":"546.450","REF_FRAME":"TEME","TLE_LINE1":"1 48370U 21038T   23168.63285040 -.00000849  00000-0 -38132-4 0  9998","OBJECT_NAME":"STARLINK-2621","TIME_SYSTEM":"UTC","GP_ID":"234171061","COUNTRY_CODE":"US","LAUNCH_DATE":"2021-05-04","EPHEMERIS_TYPE":"0","MEAN_MOTION_DDOT":"0.0000000000000","PERIOD":"95.593","BSTAR":"-0.00003813200000","NORAD_CAT_ID":"48370","OBJECT_TYPE":"PAYLOAD","TLE_LINE2":"2 48370  53.0547 143.0919 0001130  94.2599 265.8519 15.06393846117031","MEAN_MOTION_DOT":"-0.00000849","ARG_OF_PERICENTER":"94.2599","ECCENTRICITY":"0.00011300","MEAN_ELEMENT_THEORY":"SGP4","MEAN_MOTION":"15.06393846","SITE":"AFETR","CLASSIFICATION_TYPE":"U","MEAN_ANOMALY":"265.8519","REV_AT_EPOCH":"11703","EPOCH":"2023-06-17T15:11:18.274560","CENTER_NAME":"EARTH","FILE":"3935891","INCLINATION":"53.0547","APOAPSIS":"548.015"},{"EPOCH":"2023-06-17T15:06:00.302688","CENTER_NAME":"EARTH","INCLINATION":"53.0552","FILE":"3935891","APOAPSIS":"548.207","CLASSIFICATION_TYPE":"U","MEAN_ANOMALY":"271.3107","REV_AT_EPOCH":"11703","MEAN_ELEMENT_THEORY":"SGP4","MEAN_MOTION":"15.06388003","SITE":"AFETR","ECCENTRICITY":"0.00013810","MEAN_MOTION_DOT":"-0.00000908","TLE_LINE2":"2 48371  53.0552 143.1110 0001381  88.8041 271.3107 15.06388003117035","ARG_OF_PERICENTER":"88.8041","BSTAR":"-0.00004208700000","NORAD_CAT_ID":"48371","OBJECT_TYPE":"PAYLOAD","PERIOD":"95.593","LAUNCH_DATE":"2021-05-04","EPHEMERIS_TYPE":"0","MEAN_MOTION_DDOT":"0.0000000000000","GP_ID":"234170812","COUNTRY_CODE":"US","OBJECT_NAME":"STARLINK-2589","TIME_SYSTEM":"UTC","TLE_LINE1":"1 48371U 21038U   23168.62917017 -.00000908  00000-0 -42087-4 0  9994","REF_FRAME":"TEME","PERIAPSIS":"546.294","ELEMENT_SET_NO":"999","DECAY_DATE":null,"RCS_SIZE":"LARGE","SEMIMAJOR_AXIS":"6925.385","OBJECT_ID":"2021-038U","RA_OF_ASC_NODE":"143.1110"},{"PERIAPSIS":"546.332","REF_FRAME":"TEME","SEMIMAJOR_AXIS":"6925.382","OBJECT_ID":"2021-038V","RA_OF_ASC_NODE":"143.1247","ELEMENT_SET_NO":"999","DECAY_DATE":null,"RCS_SIZE":"LARGE","GP_ID":"234169560","COUNTRY_CODE":"US","LAUNCH_DATE":"2021-05-04","EPHEMERIS_TYPE":"0","MEAN_MOTION_DDOT":"0.0000000000000","TLE_LINE1":"1 48372U 21038V   23168.62548459 -.00000162  00000-0  80015-5 0  9990","OBJECT_NAME":"STARLINK-2572","TIME_SYSTEM":"UTC","BSTAR":"0.00000800150000","NORAD_CAT_ID":"48372","OBJECT_TYPE":"PAYLOAD","TLE_LINE2":"2 48372  53.0544 143.1247 0001321  86.9825 273.1315 15.06389178117036","MEAN_MOTION_DOT":"-0.00000162","ARG_OF_PERICENTER":"86.9825","PERIOD":"95.593","MEAN_ANOMALY":"273.1315","CLASSIFICATION_TYPE":"U","REV_AT_EPOCH":"11703","CENTER_NAME":"EARTH","EPOCH":"2023-06-17T15:00:41.868576","INCLINATION":"53.0544","FILE":"3935891","APOAPSIS":"548.162","ECCENTRICITY":"0.00013210","MEAN_ELEMENT_THEORY":"SGP4","MEAN_MOTION":"15.06389178","SITE":"AFETR"}];
